{"type": "FeatureCollection", "features": [ {"type": "Feature", "properties": {"norad_id": 66929, "name": "STARLINK-36169", "group": "last-30-days", "lat": -52.94730383652126, "lon": -104.20543930507552, "alt_km": 378.97787912505464, "timestamp": "2025-12-24T07:45:04.934029+00:00", "meta": {"OBJECT_NAME": "STARLINK-36169", "OBJECT_ID": "2025-286E", "EPOCH": "2025-12-23T22:00:01.999584", "MEAN_MOTION": 15.66749803, "ECCENTRICITY": 0.00014389, "INCLINATION": 53.1594, "RA_OF_ASC_NODE": 354.549, "ARG_OF_PERICENTER": 90.7572, "MEAN_ANOMALY": 43.5686, "EPHEMERIS_TYPE": 0, "CLASSIFICATION_TYPE": "U", "NORAD_CAT_ID": 66929, "ELEMENT_SET_NO": 999, "REV_AT_EPOCH": 378, "BSTAR": -0.020735204, "MEAN_MOTION_DOT": -0.01964752, "MEAN_MOTION_DDOT": 0}, "tle": {"line1": "1 66929U 25286E   25357.91668981 -.01964752  00000+0 -20735-1 0  9998", "line2": "2 66929  53.1594 354.5490 0001438  90.7572  43.5686 15.66749803  3786"}}, "geometry": {"type": "Point", "coordinates": [-104.20543930507552, -52.94730383652126]}}, {"type": "Feature", "properties": {"norad_id": 66930, "name": "STARLINK-36206", "group": "last-30-days", "lat": -53.08505509817425, "lon": -101.0366826774032, "alt_km": 378.86519763472097, "timestamp": "2025-12-24T07:45:04.934040+00:00", "meta": {"OBJECT_NAME": "STARLINK-36206", "OBJECT_ID": "2025-286F", "EPOCH": "2025-12-23T22:00:01.999584", "MEAN_MOTION": 15.66748509, "ECCENTRICITY": 0.00012765, "INCLINATION": 53.159, "RA_OF_ASC_NODE": 354.545, "ARG_OF_PERICENTER": 91.4826, "MEAN_ANOMALY": 44.7602, "EPHEMERIS_TYPE": 0, "CLASSIFICATION_TYPE": "U", "NORAD_CAT_ID": 66930, "ELEMENT_SET_NO": 999, "REV_AT_EPOCH": 378, "BSTAR": -0.020693398, "MEAN_MOTION_DOT": -0.01961046, "MEAN_MOTION_DDOT": 0}, "tle": {"line1": "1 66930U 25286F   25357.91668981 -.01961046  00000+0 -20693-1 0  9996", "line2": "2 66930  53.1590 354.5450 0001276  91.4826  44.7602 15.66748509  3783"}}, "geometry": {"type": "Point", "coordinates": [-101.0366826774032, -53.08505509817425]}}, {"type": "Feature", "properties": {"norad_id": 66931, "name": "STARLINK-36130", "group": "last-30-days", "lat": -53.13829318487388, "lon": -97.85497222795124, "alt_km": 378.98638547075734, "timestamp": "2025-12-24T07:45:04.934049+00:00", "meta": {"OBJECT_NAME": "STARLINK-36130", "OBJECT_ID": "2025-286G", "EPOCH": "2025-12-23T22:00:01.999584", "MEAN_MOTION": 15.6674462, "ECCENTRICITY": 0.00014429, "INCLINATION": 53.1589, "RA_OF_ASC_NODE": 354.5412, "ARG_OF_PERICENTER": 94.6936, "MEAN_ANOMALY": 43.4693, "EPHEMERIS_TYPE": 0, "CLASSIFICATION_TYPE": "U", "NORAD_CAT_ID": 66931, "ELEMENT_SET_NO": 999, "REV_AT_EPOCH": 378, "BSTAR": -0.020670178, "MEAN_MOTION_DOT": -0.01958955, "MEAN_MOTION_DDOT": 0}, "tle": {"line1": "1 66931U 25286G   25357.91668981 -.01958955  00000+0 -20670-1 0  9997", "line2": "2 66931  53.1589 354.5412 0001442  94.6936  43.4693 15.66744620  3788"}}, "geometry": {"type": "Point", "coordinates": [-97.85497222795124, -53.13829318487388]}}, {"type": "Feature", "properties": {"norad_id": 66932, "name": "STARLINK-36177", "group": "last-30-days", "lat": -53.10669620339361, "lon": -94.67552958140172, "alt_km": 379.034622742387, "timestamp": "2025-12-24T07:45:04.934059+00:00", "meta": {"OBJECT_NAME": "STARLINK-36177", "OBJECT_ID": "2025-286H", "EPOCH": "2025-12-23T22:00:01.999584", "MEAN_MOTION": 15.66745261, "ECCENTRICITY": 0.00015133, "INCLINATION": 53.159, "RA_OF_ASC_NODE": 354.5367, "ARG_OF_PERICENTER": 89.4646, "MEAN_ANOMALY": 50.6134, "EPHEMERIS_TYPE": 0, "CLASSIFICATION_TYPE": "U", "NORAD_CAT_ID": 66932, "ELEMENT_SET_NO": 999, "REV_AT_EPOCH": 378, "BSTAR": -0.020661846, "MEAN_MOTION_DOT": -0.01958358, "MEAN_MOTION_DDOT": 0}, "tle": {"line1": "1 66932U 25286H   25357.91668981 -.01958358  00000+0 -20662-1 0  9996", "line2": "2 66932  53.1590 354.5367 0001513  89.4646  50.6134 15.66745261  3781"}}, "geometry": {"type": "Point", "coordinates": [-94.67552958140172, -53.10669620339361]}}, {"type": "Feature", "properties": {"norad_id": 66933, "name": "STARLINK-36157", "group": "last-30-days", "lat": -52.99006841526986, "lon": -91.50227514497793, "alt_km": 379.0282537179355, "timestamp": "2025-12-24T07:45:04.934069+00:00", "meta": {"OBJECT_NAME": "STARLINK-36157", "OBJECT_ID": "2025-286J", "EPOCH": "2025-12-23T22:00:01.999584", "MEAN_MOTION": 15.66744138, "ECCENTRICITY": 0.00015128, "INCLINATION": 53.159, "RA_OF_ASC_NODE": 354.5327, "ARG_OF_PERICENTER": 91.457, "MEAN_ANOMALY": 50.5381, "EPHEMERIS_TYPE": 0, "CLASSIFICATION_TYPE": "U", "NORAD_CAT_ID": 66933, "ELEMENT_SET_NO": 999, "REV_AT_EPOCH": 378, "BSTAR": -0.020635107, "MEAN_MOTION_DOT": -0.01956042, "MEAN_MOTION_DDOT": 0}, "tle": {"line1": "1 66933U 25286J   25357.91668981 -.01956042  00000+0 -20635-1 0  9995", "line2": "2 66933  53.1590 354.5327 0001512  91.4570  50.5381 15.66744138  3781"}}, "geometry": {"type": "Point", "coordinates": [-91.50227514497793, -52.99006841526986]}}, {"type": "Feature", "properties": {"norad_id": 66934, "name": "STARLINK-36153", "group": "last-30-days", "lat": -52.78895640470902, "lon": -88.35020284553063, "alt_km": 378.9585103879708, "timestamp": "2025-12-24T07:45:04.934081+00:00", "meta": {"OBJECT_NAME": "STARLINK-36153", "OBJECT_ID": "2025-286K", "EPOCH": "2025-12-23T22:00:01.999584", "MEAN_MOTION": 15.66743032, "ECCENTRICITY": 0.00013988, "INCLINATION": 53.1588, "RA_OF_ASC_NODE": 354.5288, "ARG_OF_PERICENTER": 95.4541, "MEAN_ANOMALY": 48.463, "EPHEMERIS_TYPE": 0, "CLASSIFICATION_TYPE": "U", "NORAD_CAT_ID": 66934, "ELEMENT_SET_NO": 999, "REV_AT_EPOCH": 378, "BSTAR": -0.020677736, "MEAN_MOTION_DOT": -0.01959442, "MEAN_MOTION_DDOT": 0}, "tle": {"line1": "1 66934U 25286K   25357.91668981 -.01959442  00000+0 -20678-1 0  9990", "line2": "2 66934  53.1588 354.5288 0001398  95.4541  48.4630 15.66743032  3784"}}, "geometry": {"type": "Point", "coordinates": [-88.35020284553063, -52.78895640470902]}}, {"type": "Feature", "properties": {"norad_id": 66935, "name": "STARLINK-36127", "group": "last-30-days", "lat": -52.506492001462206, "lon": -85.24217882326315, "alt_km": 378.9972411305007, "timestamp": "2025-12-24T07:45:04.934093+00:00", "meta": {"OBJECT_NAME": "STARLINK-36127", "OBJECT_ID": "2025-286L", "EPOCH": "2025-12-23T22:00:01.999584", "MEAN_MOTION": 15.66742516, "ECCENTRICITY": 0.00015014, "INCLINATION": 53.1592, "RA_OF_ASC_NODE": 354.5244, "ARG_OF_PERICENTER": 87.5893, "MEAN_ANOMALY": 58.2407, "EPHEMERIS_TYPE": 0, "CLASSIFICATION_TYPE": "U", "NORAD_CAT_ID": 66935, "ELEMENT_SET_NO": 999, "REV_AT_EPOCH": 378, "BSTAR": -0.020620957, "MEAN_MOTION_DOT": -0.01954736, "MEAN_MOTION_DDOT": 0}, "tle": {"line1": "1 66935U 25286L   25357.91668981 -.01954736  00000+0 -20621-1 0  9990", "line2": "2 66935  53.1592 354.5244 0001501  87.5893  58.2407 15.66742516  3787"}}, "geometry": {"type": "Point", "coordinates": [-85.24217882326315, -52.506492001462206]}}, {"type": "Feature", "properties": {"norad_id": 66936, "name": "STARLINK-36160", "group": "last-30-days", "lat": -52.14232746783513, "lon": -82.17225116059073, "alt_km": 378.9760022186556, "timestamp": "2025-12-24T07:45:04.934105+00:00", "meta": {"OBJECT_NAME": "STARLINK-36160", "OBJECT_ID": "2025-286M", "EPOCH": "2025-12-23T22:00:01.999584", "MEAN_MOTION": 15.66745798, "ECCENTRICITY": 0.00014875, "INCLINATION": 53.1592, "RA_OF_ASC_NODE": 354.5214, "ARG_OF_PERICENTER": 88.5419, "MEAN_ANOMALY": 59.2029, "EPHEMERIS_TYPE": 0, "CLASSIFICATION_TYPE": "U", "NORAD_CAT_ID": 66936, "ELEMENT_SET_NO": 999, "REV_AT_EPOCH": 378, "BSTAR": -0.020661724, "MEAN_MOTION_DOT": -0.01958365, "MEAN_MOTION_DDOT": 0}, "tle": {"line1": "1 66936U 25286M   25357.91668981 -.01958365  00000+0 -20662-1 0  9998", "line2": "2 66936  53.1592 354.5214 0001487  88.5419  59.2029 15.66745798  3789"}}, "geometry": {"type": "Point", "coordinates": [-82.17225116059073, -52.14232746783513]}}, {"type": "Feature", "properties": {"norad_id": 66937, "name": "STARLINK-36165", "group": "last-30-days", "lat": -51.69921474686028, "lon": -79.15782346110848, "alt_km": 378.9764653062948, "timestamp": "2025-12-24T07:45:04.934118+00:00", "meta": {"OBJECT_NAME": "STARLINK-36165", "OBJECT_ID": "2025-286N", "EPOCH": "2025-12-23T22:00:01.999584", "MEAN_MOTION": 15.66744421, "ECCENTRICITY": 0.00014982, "INCLINATION": 53.1589, "RA_OF_ASC_NODE": 354.517, "ARG_OF_PERICENTER": 92.0339, "MEAN_ANOMALY": 57.629, "EPHEMERIS_TYPE": 0, "CLASSIFICATION_TYPE": "U", "NORAD_CAT_ID": 66937, "ELEMENT_SET_NO": 999, "REV_AT_EPOCH": 378, "BSTAR": -0.02064837, "MEAN_MOTION_DOT": -0.0195716, "MEAN_MOTION_DDOT": 0}, "tle": {"line1": "1 66937U 25286N   25357.91668981 -.01957160  00000+0 -20648-1 0  9995", "line2": "2 66937  53.1589 354.5170 0001498  92.0339  57.6290 15.66744421  3784"}}, "geometry": {"type": "Point", "coordinates": [-79.15782346110848, -51.69921474686028]}}, {"type": "Feature", "properties": {"norad_id": 66938, "name": "STARLINK-36155", "group": "last-30-days", "lat": -51.1810551246673, "lon": -76.20813239667802, "alt_km": 378.91481290063166, "timestamp": "2025-12-24T07:45:04.934128+00:00", "meta": {"OBJECT_NAME": "STARLINK-36155", "OBJECT_ID": "2025-286P", "EPOCH": "2025-12-23T22:00:01.999584", "MEAN_MOTION": 15.66745772, "ECCENTRICITY": 0.00014403, "INCLINATION": 53.1591, "RA_OF_ASC_NODE": 354.5125, "ARG_OF_PERICENTER": 90.8528, "MEAN_ANOMALY": 60.7268, "EPHEMERIS_TYPE": 0, "CLASSIFICATION_TYPE": "U", "NORAD_CAT_ID": 66938, "ELEMENT_SET_NO": 999, "REV_AT_EPOCH": 378, "BSTAR": -0.02067093, "MEAN_MOTION_DOT": -0.01959097, "MEAN_MOTION_DDOT": 0}, "tle": {"line1": "1 66938U 25286P   25357.91668981 -.01959097  00000+0 -20671-1 0  9993", "line2": "2 66938  53.1591 354.5125 0001440  90.8528  60.7268 15.66745772  3781"}}, "geometry": {"type": "Point", "coordinates": [-76.20813239667802, -51.1810551246673]}}]}